EUTELSAT 8 WEST B       
1 40875U 15039B   25347.63016367 -.00000050  00000+0  00000+0 0  9999
2 40875   0.0661  10.0371 0004237 253.3636  38.0323  1.00271705 37793
EUTELSAT 9B             
1 41310U 16005A   25347.63354369  .00000077  00000+0  00000+0 0  9993
2 41310   0.0471  65.8451 0004617 205.1638  48.6280  1.00270425 36250
EUTELSAT 65 WEST A      
1 41382U 16014A   25347.54748314 -.00000261  00000+0  00000+0 0  9995
2 41382   0.0529  16.4904 0002468 254.2667 303.6171  1.00271720 35674
EUTELSAT 117 WEST B     
1 41589U 16038B   25346.96650689  .00000001  00000+0  00000+0 0  9993
2 41589   0.0110 153.7448 0000251 269.9053 249.2194  1.00271866 34790
EUTELSAT 172B           
1 42741U 17029B   25347.58505666  .00000009  00000+0  00000+0 0  9996
2 42741   0.0463 139.9008 0000267 247.1462  78.0741  1.00270673 31876
EUTELSAT 7C             
1 44334U 19034B   25347.63311036  .00000064  00000+0  00000+0 0  9997
2 44334   0.0725 178.8041 0003167  67.5886  71.0770  1.00271666  4971
EUTELSAT 5 WEST B       
1 44624U 19067A   25347.63077035 -.00000027  00000+0  00000+0 0  9993
2 44624   0.0617 351.0606 0003300 272.0253  41.5517  1.00272105 22571
EUTELSAT KONNECT        
1 45027U 20005B   25347.63319703  .00000064  00000+0  00000+0 0  9996
2 45027   0.0706  96.3476 0001480 190.0371  31.3246  1.00268961 22479
